{"features":[{"properties":{"weight":1420.8,"distance_meters":5484.8,"duration_seconds":1420.8,"type":"street"},"geometry":{"coordinates":[[-93.194954,44.9388],[-93.194954,44.938773],[-93.194935,44.938667],[-93.195027,44.938578],[-93.195235,44.938578],[-93.195235,44.93854],[-93.195353,44.9384],[-93.195344,44.938281],[-93.194966,44.93828],[-93.194869,44.938262],[-93.194702,44.938096],[-93.194688,44.937915],[-93.192619,44.937921],[-93.192471,44.937921],[-93.192383,44.937921],[-93.189932,44.937926],[-93.188083,44.937928],[-93.187515,44.93793],[-93.187389,44.93793],[-93.187387,44.937478],[-93.18739,44.937035],[-93.187385,44.93659],[-93.187386,44.936215],[-93.187386,44.936126],[-93.187387,44.935674],[-93.18738,44.935233],[-93.187381,44.935166],[-93.187388,44.934786],[-93.187392,44.934423],[-93.187394,44.934335],[-93.187393,44.93417],[-93.187392,44.933729],[-93.187391,44.933424],[-93.187392,44.93298],[-93.187385,44.932516],[-93.187381,44.932066],[-93.187384,44.93161],[-93.187385,44.931542],[-93.18739,44.931165],[-93.187384,44.930705],[-93.187383,44.930608],[-93.187388,44.930228],[-93.187376,44.929794],[-93.187388,44.929335],[-93.187375,44.928885],[-93.187378,44.928433],[-93.187373,44.927976],[-93.18737,44.927535],[-93.187377,44.927176],[-93.18738,44.92707],[-93.187381,44.926971],[-93.18739,44.926614],[-93.187386,44.926144],[-93.18739,44.925253],[-93.187383,44.924794],[-93.187382,44.924344],[-93.187384,44.92344],[-93.187384,44.92335],[-93.187381,44.922525],[-93.187383,44.922089],[-93.187376,44.921621],[-93.187386,44.921163],[-93.187386,44.921136],[-93.187387,44.92071],[-93.187385,44.920335],[-93.187383,44.919899],[-93.187383,44.919841],[-93.187382,44.919757],[-93.187382,44.919704],[-93.187383,44.919602],[-93.187384,44.919439],[-93.187384,44.919343],[-93.187385,44.919282],[-93.187388,44.919066],[-93.187389,44.919021],[-93.187389,44.918968],[-93.187388,44.918893],[-93.187386,44.918819],[-93.187386,44.918746],[-93.187383,44.918439],[-93.187381,44.918271],[-93.187377,44.918034],[-93.187382,44.917977],[-93.187382,44.917927],[-93.187383,44.917891],[-93.187458,44.917824],[-93.187451,44.917171],[-93.187451,44.917086],[-93.187454,44.916792],[-93.187457,44.916437],[-93.187454,44.916386],[-93.187442,44.916176],[-93.187363,44.916065],[-93.187271,44.915911],[-93.187189,44.91578],[-93.187128,44.915678],[-93.186545,44.914838],[-93.186505,44.914777],[-93.185983,44.913985],[-93.185752,44.913636],[-93.185258,44.912892],[-93.185091,44.912643],[-93.185018,44.912532],[-93.184974,44.912466],[-93.184278,44.911431],[-93.183119,44.909719],[-93.183034,44.909617],[-93.182637,44.909177],[-93.182384,44.908896],[-93.18195,44.908419],[-93.18133,44.907726],[-93.179668,44.905882],[-93.179143,44.905308],[-93.179068,44.905225],[-93.178382,44.904468],[-93.178268,44.904357],[-93.178168,44.904288],[-93.178084,44.904246],[-93.177955,44.904204],[-93.177809,44.904178],[-93.177751,44.904174],[-93.177656,44.904167],[-93.177423,44.904168],[-93.177331,44.904169],[-93.177332,44.904086],[-93.177337,44.903748],[-93.177341,44.903529],[-93.177339,44.903363],[-93.177339,44.903326],[-93.177339,44.903281],[-93.177339,44.90324],[-93.177332,44.902658],[-93.177331,44.902578],[-93.177329,44.901988],[-93.177328,44.901755],[-93.177328,44.901667],[-93.177327,44.90158],[-93.177323,44.900838],[-93.177322,44.900753],[-93.177321,44.900675],[-93.177316,44.900422],[-93.177311,44.900308],[-93.177319,44.900065],[-93.177326,44.899854],[-93.177441,44.899852],[-93.177638,44.899849],[-93.177614,44.899439],[-93.177629,44.899401],[-93.177797,44.89896],[-93.177925,44.898876],[-93.178008,44.898821],[-93.178208,44.89873],[-93.178491,44.898604],[-93.178692,44.898526],[-93.17891,44.898516],[-93.179121,44.898512],[-93.179121,44.898322]],"type":"LineString"},"type":"Feature"}],"type":"FeatureCollection"}