{"features":[{"properties":{"weight":1525.8,"distance_meters":2116.4,"duration_seconds":1525.8,"type":"street"},"geometry":{"coordinates":[[-93.588581,45.058177],[-93.588127,45.057983],[-93.587357,45.057697],[-93.586578,45.057434],[-93.585777,45.057198],[-93.585026,45.056999],[-93.584969,45.056984],[-93.584688,45.056912],[-93.583801,45.056686],[-93.5835,45.056609],[-93.580343,45.055801],[-93.578119,45.055232],[-93.576035,45.054699],[-93.574334,45.054263],[-93.574145,45.054212],[-93.573579,45.054065],[-93.572267,45.053731],[-93.571977,45.053654],[-93.571794,45.053586],[-93.571532,45.053513],[-93.570287,45.053184],[-93.569556,45.053006],[-93.56783,45.052563],[-93.563565,45.051463],[-93.563579,45.05139]],"type":"LineString"},"type":"Feature"}],"type":"FeatureCollection"}