{"features":[{"properties":{"weight":2503.0,"distance_meters":3026.7,"duration_seconds":2246.0,"type":"street"},"geometry":{"coordinates":[[-93.588581,45.058177],[-93.58878,45.058262],[-93.588701,45.058581],[-93.588653,45.058948],[-93.588723,45.05924],[-93.589061,45.060062],[-93.588744,45.060083],[-93.588299,45.060083],[-93.587806,45.060019],[-93.587312,45.05986],[-93.586931,45.059636],[-93.586481,45.0592],[-93.5861,45.058848],[-93.585703,45.05859],[-93.585263,45.058439],[-93.584895,45.058384],[-93.584141,45.058373],[-93.583832,45.058369],[-93.583515,45.058367],[-93.582946,45.058364],[-93.582642,45.058362],[-93.582581,45.058362],[-93.581408,45.058355],[-93.579391,45.058344],[-93.576988,45.05833],[-93.576566,45.058328],[-93.575763,45.058324],[-93.57424,45.058315],[-93.57361,45.058317],[-93.572757,45.058318],[-93.572619,45.058317],[-93.572482,45.058313],[-93.57179,45.058313],[-93.571146,45.058313],[-93.570781,45.05831],[-93.570293,45.058306],[-93.569059,45.058287],[-93.567708,45.058279],[-93.567455,45.058328],[-93.567193,45.058393],[-93.566747,45.058552],[-93.566329,45.058666],[-93.565803,45.058719],[-93.56531,45.058666],[-93.56509,45.058575],[-93.564843,45.058465],[-93.56462,45.058309],[-93.564171,45.057784],[-93.564077,45.057565],[-93.564074,45.057398],[-93.564046,45.057202],[-93.564034,45.056798],[-93.563967,45.056387],[-93.563897,45.056012],[-93.563838,45.055763],[-93.563734,45.054848],[-93.56372,45.054745],[-93.563658,45.054284],[-93.563576,45.053829],[-93.56351,45.053219],[-93.563492,45.053003],[-93.563464,45.052671],[-93.563509,45.051769],[-93.563534,45.051633],[-93.563565,45.051463],[-93.563579,45.05139]],"type":"LineString"},"type":"Feature"}],"type":"FeatureCollection"}