{
"type": "FeatureCollection",
"name": "data",
"features": [
{ "type": "Feature", "id": 0, "properties": { "time": 3438.815687161225, "elev": 48.698196411132812 }, "geometry": { "type": "LineString", "coordinates": [ [ -93.1404719, 44.9270039, 244.711471557617188 ], [ -93.1404736, 44.9269198, 244.461105346679688 ], [ -93.141565300000011, 44.9269251, 245.05059814453125 ], [ -93.143283700000012, 44.9269334, 250.002578735351562 ], [ -93.1435259, 44.9268939, 250.997360229492188 ], [ -93.1438355, 44.9268891, 252.103500366210938 ], [ -93.1439433, 44.9268916, 252.55841064453125 ], [ -93.1442148, 44.9268956, 253.899139404296875 ], [ -93.1452443, 44.9268993, 257.490203857421875 ], [ -93.1454235, 44.9268993, 259.189117431640625 ], [ -93.1455992, 44.9269004, 259.944488525390625 ], [ -93.1456411, 44.9268494, 259.987274169921875 ], [ -93.1461675, 44.9268509, 262.42486572265625 ], [ -93.146461800000012, 44.9268518, 263.36505126953125 ], [ -93.1466046, 44.9268591, 263.758056640625 ], [ -93.1467589, 44.9268669, 263.86968994140625 ], [ -93.1486752, 44.9268698, 271.419097900390625 ], [ -93.1500355, 44.9268735, 277.1246337890625 ], [ -93.15028980000001, 44.9268742, 278.070709228515625 ], [ -93.15040470000001, 44.9268745, 278.279327392578125 ], [ -93.1517251, 44.9268774, 280.931884765625 ], [ -93.154265, 44.9268852, 285.95306396484375 ], [ -93.155750700000013, 44.9268945, 287.332427978515625 ], [ -93.1559589, 44.9268945, 287.09295654296875 ], [ -93.156852300000011, 44.9268945, 285.986419677734375 ], [ -93.1570002, 44.9268783, 285.9354248046875 ], [ -93.1587717, 44.926879, 285.203094482421875 ], [ -93.159293600000012, 44.9268793, 285.2169189453125 ], [ -93.1593869, 44.9268793, 285.287322998046875 ], [ -93.1594994, 44.9268798, 285.333892822265625 ], [ -93.160351, 44.9268837, 286.6302490234375 ], [ -93.1608565, 44.9268865, 287.4881591796875 ], [ -93.161497, 44.9268888, 288.601470947265625 ], [ -93.1616702, 44.9268845, 288.813507080078125 ], [ -93.1619333, 44.926885, 289.000762939453125 ], [ -93.162731, 44.9268865, 289.32830810546875 ], [ -93.1632034, 44.9268874, 289.279998779296875 ], [ -93.164475700000011, 44.9268912, 289.902313232421875 ], [ -93.1657234, 44.9268959, 290.28045654296875 ], [ -93.1669804, 44.9268973, 290.037567138671875 ], [ -93.167110900000011, 44.9268972, 290.023193359375 ], [ -93.1672436, 44.9268983, 289.9970703125 ], [ -93.1678462, 44.9268992, 289.7108154296875 ], [ -93.169569200000012, 44.9269068, 288.872711181640625 ], [ -93.1721202, 44.9269211, 285.4798583984375 ], [ -93.1746646, 44.9269277, 284.295257568359375 ], [ -93.1766213, 44.9269357, 283.53021240234375 ], [ -93.1772105, 44.9269382, 283.180023193359375 ], [ -93.1773756, 44.9269409, 283.3931884765625 ], [ -93.17870760000001, 44.9269436, 283.839080810546875 ], [ -93.1807708, 44.9269515, 283.807373046875 ], [ -93.1814233, 44.9269544, 283.596527099609375 ], [ -93.1818829, 44.9269557, 283.561370849609375 ], [ -93.1823914, 44.9269571, 283.38751220703125 ], [ -93.1840217, 44.926963, 280.801300048828125 ], [ -93.184235, 44.9269638, 280.398193359375 ], [ -93.1842588, 44.9269639, 280.398193359375 ], [ -93.1845281, 44.9269649, 279.49847412109375 ], [ -93.187074, 44.9269742, 270.490875244140625 ], [ -93.1871481, 44.9269745, 270.178314208984375 ], [ -93.187243200000012, 44.9269748, 269.78619384765625 ], [ -93.1873814, 44.9269713, 269.5562744140625 ], [ -93.1875316, 44.9269719, 269.248443603515625 ], [ -93.1899279, 44.9269657, 264.17181396484375 ], [ -93.1923836, 44.9269543, 261.3231201171875 ], [ -93.1925169, 44.9269511, 261.104156494140625 ], [ -93.1925983, 44.9269506, 261.14630126953125 ], [ -93.1935901, 44.9269524, 259.95599365234375 ], [ -93.1941424, 44.9269514, 259.156005859375 ], [ -93.194878100000011, 44.92695, 256.4747314453125 ], [ -93.1949943, 44.9269478, 256.042694091796875 ], [ -93.1951051, 44.9269469, 255.325347900390625 ], [ -93.1958543, 44.9269407, 252.710861206054688 ], [ -93.1966399, 44.9269407, 251.039382934570312 ], [ -93.1967397, 44.9269404, 250.933578491210938 ], [ -93.196809300000012, 44.9269402, 250.80450439453125 ], [ -93.19693, 44.9269406, 250.8040771484375 ] ] } },
{ "type": "Feature", "id": 1, "properties": { "time": 3504.3702605137455, "elev": 48.414260864257812 }, "geometry": { "type": "LineString", "coordinates": [ [ -93.1404719, 44.9270039, 244.711471557617188 ], [ -93.1404736, 44.9269198, 244.461105346679688 ], [ -93.141565300000011, 44.9269251, 245.05059814453125 ], [ -93.143283700000012, 44.9269334, 250.002578735351562 ], [ -93.1435259, 44.9268939, 250.997360229492188 ], [ -93.1438355, 44.9268891, 252.103500366210938 ], [ -93.1439433, 44.9268916, 252.55841064453125 ], [ -93.1442148, 44.9268956, 253.899139404296875 ], [ -93.1452443, 44.9268993, 257.490203857421875 ], [ -93.1454235, 44.9268993, 259.189117431640625 ], [ -93.1455992, 44.9269004, 259.944488525390625 ], [ -93.1456411, 44.9268494, 259.987274169921875 ], [ -93.1461675, 44.9268509, 262.42486572265625 ], [ -93.146461800000012, 44.9268518, 263.36505126953125 ], [ -93.1466046, 44.9268591, 263.758056640625 ], [ -93.1467589, 44.9268669, 263.86968994140625 ], [ -93.1486752, 44.9268698, 271.419097900390625 ], [ -93.1500355, 44.9268735, 277.1246337890625 ], [ -93.15028980000001, 44.9268742, 278.070709228515625 ], [ -93.15040470000001, 44.9268745, 278.279327392578125 ], [ -93.1517251, 44.9268774, 280.931884765625 ], [ -93.154265, 44.9268852, 285.95306396484375 ], [ -93.1542691, 44.9265035, 286.807281494140625 ], [ -93.1568534, 44.9265072, 285.745208740234375 ], [ -93.156852300000011, 44.9268945, 285.986419677734375 ], [ -93.1570002, 44.9268783, 285.9354248046875 ], [ -93.1587717, 44.926879, 285.203094482421875 ], [ -93.159293600000012, 44.9268793, 285.2169189453125 ], [ -93.1593869, 44.9268793, 285.287322998046875 ], [ -93.1594994, 44.9268798, 285.333892822265625 ], [ -93.160351, 44.9268837, 286.6302490234375 ], [ -93.1608565, 44.9268865, 287.4881591796875 ], [ -93.161497, 44.9268888, 288.601470947265625 ], [ -93.1616702, 44.9268845, 288.813507080078125 ], [ -93.1619333, 44.926885, 289.000762939453125 ], [ -93.162731, 44.9268865, 289.32830810546875 ], [ -93.1632034, 44.9268874, 289.279998779296875 ], [ -93.164475700000011, 44.9268912, 289.902313232421875 ], [ -93.1657234, 44.9268959, 290.28045654296875 ], [ -93.1669804, 44.9268973, 290.037567138671875 ], [ -93.167110900000011, 44.9268972, 290.023193359375 ], [ -93.1672436, 44.9268983, 289.9970703125 ], [ -93.1678462, 44.9268992, 289.7108154296875 ], [ -93.169569200000012, 44.9269068, 288.872711181640625 ], [ -93.1721202, 44.9269211, 285.4798583984375 ], [ -93.1746646, 44.9269277, 284.295257568359375 ], [ -93.1766213, 44.9269357, 283.53021240234375 ], [ -93.1772105, 44.9269382, 283.180023193359375 ], [ -93.1773756, 44.9269409, 283.3931884765625 ], [ -93.17870760000001, 44.9269436, 283.839080810546875 ], [ -93.1807708, 44.9269515, 283.807373046875 ], [ -93.1814233, 44.9269544, 283.596527099609375 ], [ -93.1818829, 44.9269557, 283.561370849609375 ], [ -93.1823914, 44.9269571, 283.38751220703125 ], [ -93.1840217, 44.926963, 280.801300048828125 ], [ -93.184235, 44.9269638, 280.398193359375 ], [ -93.1842588, 44.9269639, 280.398193359375 ], [ -93.1845281, 44.9269649, 279.49847412109375 ], [ -93.187074, 44.9269742, 270.490875244140625 ], [ -93.1871481, 44.9269745, 270.178314208984375 ], [ -93.187243200000012, 44.9269748, 269.78619384765625 ], [ -93.1873814, 44.9269713, 269.5562744140625 ], [ -93.1875316, 44.9269719, 269.248443603515625 ], [ -93.1899279, 44.9269657, 264.17181396484375 ], [ -93.1923836, 44.9269543, 261.3231201171875 ], [ -93.1925169, 44.9269511, 261.104156494140625 ], [ -93.1925983, 44.9269506, 261.14630126953125 ], [ -93.1935901, 44.9269524, 259.95599365234375 ], [ -93.1941424, 44.9269514, 259.156005859375 ], [ -93.194878100000011, 44.92695, 256.4747314453125 ], [ -93.1949943, 44.9269478, 256.042694091796875 ], [ -93.1951051, 44.9269469, 255.325347900390625 ], [ -93.1958543, 44.9269407, 252.710861206054688 ], [ -93.1966399, 44.9269407, 251.039382934570312 ], [ -93.1967397, 44.9269404, 250.933578491210938 ], [ -93.196809300000012, 44.9269402, 250.80450439453125 ], [ -93.19693, 44.9269406, 250.8040771484375 ] ] } },
{ "type": "Feature", "id": 2, "properties": { "time": 3671.3148934107562, "elev": 48.085922241210938 }, "geometry": { "type": "LineString", "coordinates": [ [ -93.1404719, 44.9270039, 244.711471557617188 ], [ -93.1404736, 44.9269198, 244.461105346679688 ], [ -93.141565300000011, 44.9269251, 245.05059814453125 ], [ -93.143283700000012, 44.9269334, 250.002578735351562 ], [ -93.1435259, 44.9268939, 250.997360229492188 ], [ -93.1438355, 44.9268891, 252.103500366210938 ], [ -93.1439433, 44.9268916, 252.55841064453125 ], [ -93.1442148, 44.9268956, 253.899139404296875 ], [ -93.1452443, 44.9268993, 257.490203857421875 ], [ -93.1454235, 44.9268993, 259.189117431640625 ], [ -93.1455992, 44.9269004, 259.944488525390625 ], [ -93.1456411, 44.9268494, 259.987274169921875 ], [ -93.1461675, 44.9268509, 262.42486572265625 ], [ -93.146461800000012, 44.9268518, 263.36505126953125 ], [ -93.1466046, 44.9268591, 263.758056640625 ], [ -93.1467589, 44.9268669, 263.86968994140625 ], [ -93.1486752, 44.9268698, 271.419097900390625 ], [ -93.1500355, 44.9268735, 277.1246337890625 ], [ -93.15028980000001, 44.9268742, 278.070709228515625 ], [ -93.1502353, 44.9264964, 278.71710205078125 ], [ -93.150173900000013, 44.9260393, 280.0181884765625 ], [ -93.1501022, 44.9255823, 280.416534423828125 ], [ -93.151724, 44.9255873, 281.582244873046875 ], [ -93.1542703, 44.9255977, 285.20697021484375 ], [ -93.1562458, 44.9256034, 286.207305908203125 ], [ -93.1562406, 44.9260697, 285.87451171875 ], [ -93.1568532, 44.9260776, 285.47357177734375 ], [ -93.1568534, 44.9265072, 285.745208740234375 ], [ -93.156852300000011, 44.9268945, 285.986419677734375 ], [ -93.1570002, 44.9268783, 285.9354248046875 ], [ -93.1587717, 44.926879, 285.203094482421875 ], [ -93.159293600000012, 44.9268793, 285.2169189453125 ], [ -93.1593869, 44.9268793, 285.287322998046875 ], [ -93.1594994, 44.9268798, 285.333892822265625 ], [ -93.160351, 44.9268837, 286.6302490234375 ], [ -93.1608565, 44.9268865, 287.4881591796875 ], [ -93.161497, 44.9268888, 288.601470947265625 ], [ -93.1616702, 44.9268845, 288.813507080078125 ], [ -93.1619333, 44.926885, 289.000762939453125 ], [ -93.162731, 44.9268865, 289.32830810546875 ], [ -93.1632034, 44.9268874, 289.279998779296875 ], [ -93.164475700000011, 44.9268912, 289.902313232421875 ], [ -93.1657234, 44.9268959, 290.28045654296875 ], [ -93.1669804, 44.9268973, 290.037567138671875 ], [ -93.167110900000011, 44.9268972, 290.023193359375 ], [ -93.1672436, 44.9268983, 289.9970703125 ], [ -93.1678462, 44.9268992, 289.7108154296875 ], [ -93.169569200000012, 44.9269068, 288.872711181640625 ], [ -93.1721202, 44.9269211, 285.4798583984375 ], [ -93.1746646, 44.9269277, 284.295257568359375 ], [ -93.1766213, 44.9269357, 283.53021240234375 ], [ -93.1772105, 44.9269382, 283.180023193359375 ], [ -93.1773756, 44.9269409, 283.3931884765625 ], [ -93.17870760000001, 44.9269436, 283.839080810546875 ], [ -93.1807708, 44.9269515, 283.807373046875 ], [ -93.1814233, 44.9269544, 283.596527099609375 ], [ -93.1818829, 44.9269557, 283.561370849609375 ], [ -93.1823914, 44.9269571, 283.38751220703125 ], [ -93.1840217, 44.926963, 280.801300048828125 ], [ -93.184235, 44.9269638, 280.398193359375 ], [ -93.1842588, 44.9269639, 280.398193359375 ], [ -93.1845281, 44.9269649, 279.49847412109375 ], [ -93.187074, 44.9269742, 270.490875244140625 ], [ -93.1871481, 44.9269745, 270.178314208984375 ], [ -93.187243200000012, 44.9269748, 269.78619384765625 ], [ -93.1873814, 44.9269713, 269.5562744140625 ], [ -93.1875316, 44.9269719, 269.248443603515625 ], [ -93.1899279, 44.9269657, 264.17181396484375 ], [ -93.1923836, 44.9269543, 261.3231201171875 ], [ -93.1925169, 44.9269511, 261.104156494140625 ], [ -93.1925983, 44.9269506, 261.14630126953125 ], [ -93.1935901, 44.9269524, 259.95599365234375 ], [ -93.1941424, 44.9269514, 259.156005859375 ], [ -93.194878100000011, 44.92695, 256.4747314453125 ], [ -93.1949943, 44.9269478, 256.042694091796875 ], [ -93.1951051, 44.9269469, 255.325347900390625 ], [ -93.1958543, 44.9269407, 252.710861206054688 ], [ -93.1966399, 44.9269407, 251.039382934570312 ], [ -93.1967397, 44.9269404, 250.933578491210938 ], [ -93.196809300000012, 44.9269402, 250.80450439453125 ], [ -93.19693, 44.9269406, 250.8040771484375 ] ] } },
{ "type": "Feature", "id": 3, "properties": { "time": 4042.9073469455402, "elev": 47.345230102539062 }, "geometry": { "type": "LineString", "coordinates": [ [ -93.1404719, 44.9270039, 244.711471557617188 ], [ -93.1404736, 44.9269198, 244.461105346679688 ], [ -93.141565300000011, 44.9269251, 245.05059814453125 ], [ -93.143283700000012, 44.9269334, 250.002578735351562 ], [ -93.1435311, 44.9269736, 250.944137573242188 ], [ -93.143775, 44.9269735, 251.701217651367188 ], [ -93.1439136, 44.9269757, 252.486495971679688 ], [ -93.144192100000012, 44.9269795, 253.891815185546875 ], [ -93.1452335, 44.9269792, 258.177001953125 ], [ -93.1453881, 44.9269801, 259.14801025390625 ], [ -93.1455332, 44.9269808, 259.546722412109375 ], [ -93.1454922, 44.9270306, 259.546722412109375 ], [ -93.1464672, 44.9270331, 263.2796630859375 ], [ -93.1464705, 44.9273666, 266.1339111328125 ], [ -93.1466014, 44.9273974, 266.279052734375 ], [ -93.1467583, 44.9273975, 266.32177734375 ], [ -93.14941970000001, 44.9273988, 275.45782470703125 ], [ -93.1494157, 44.9278495, 275.506317138671875 ], [ -93.150046, 44.9278516, 276.728546142578125 ], [ -93.1502758, 44.9278523, 277.085235595703125 ], [ -93.150300800000011, 44.9278524, 277.19903564453125 ], [ -93.150906400000011, 44.927858, 278.826904296875 ], [ -93.151719, 44.927857, 281.434783935546875 ], [ -93.1542673, 44.927865, 284.399932861328125 ], [ -93.156854, 44.9278832, 285.631134033203125 ], [ -93.1574745, 44.9278891, 285.165802001953125 ], [ -93.157485, 44.9283371, 284.66510009765625 ], [ -93.157489, 44.9287847, 284.659271240234375 ], [ -93.159371, 44.928804, 283.905242919921875 ], [ -93.1619271, 44.928805, 285.70233154296875 ], [ -93.162577500000012, 44.9288055, 287.640472412109375 ], [ -93.162579400000013, 44.9306124, 288.0032958984375 ], [ -93.163199600000013, 44.9306148, 287.7781982421875 ], [ -93.1638552, 44.9306173, 287.33807373046875 ], [ -93.1644859, 44.9306198, 286.934906005859375 ], [ -93.1650833, 44.9306221, 286.729888916015625 ], [ -93.1657241, 44.9306247, 286.59747314453125 ], [ -93.165724700000013, 44.9288146, 286.326507568359375 ], [ -93.1663361, 44.9288173, 286.103973388671875 ], [ -93.16704390000001, 44.9288173, 285.998046875 ], [ -93.1678329, 44.9288159, 285.703338623046875 ], [ -93.1689843, 44.9288179, 285.22430419921875 ], [ -93.169587400000012, 44.9288157, 285.166046142578125 ], [ -93.1701708, 44.9288138, 284.877838134765625 ], [ -93.170903200000012, 44.9288184, 284.455535888671875 ], [ -93.1709019, 44.9286411, 284.802581787109375 ], [ -93.170920700000011, 44.9285861, 284.87518310546875 ], [ -93.1709636, 44.9285462, 284.795379638671875 ], [ -93.1711285, 44.9284303, 284.807769775390625 ], [ -93.171168, 44.9284151, 284.73956298828125 ], [ -93.171214400000011, 44.9283971, 284.638275146484375 ], [ -93.171241200000011, 44.9283553, 284.638275146484375 ], [ -93.1712452, 44.9283249, 284.676025390625 ], [ -93.1712399, 44.9282917, 284.676025390625 ], [ -93.1713243, 44.9283791, 284.5091552734375 ], [ -93.171359200000012, 44.9283988, 284.5091552734375 ], [ -93.1716076, 44.9279599, 284.43634033203125 ], [ -93.1716355, 44.9279184, 284.43634033203125 ], [ -93.17211420000001, 44.927922, 284.32269287109375 ], [ -93.1722355, 44.9279229, 284.250457763671875 ], [ -93.1722332, 44.9278599, 284.526519775390625 ], [ -93.174568, 44.9278623, 283.627685546875 ], [ -93.1746714, 44.927862, 283.587646484375 ], [ -93.1747772, 44.9278618, 283.80023193359375 ], [ -93.1747787, 44.9274798, 284.07666015625 ], [ -93.1747799, 44.9271315, 284.263214111328125 ], [ -93.1768552, 44.9271395, 283.6126708984375 ], [ -93.177098, 44.9271405, 283.489532470703125 ], [ -93.1772129, 44.9271409, 283.374755859375 ], [ -93.179752, 44.9271494, 283.9635009765625 ], [ -93.179752, 44.9270493, 284.030487060546875 ], [ -93.1807689, 44.9270509, 283.828857421875 ], [ -93.1814228, 44.9270537, 283.61041259765625 ], [ -93.1822877, 44.9270583, 283.444244384765625 ], [ -93.1824069, 44.9270588, 283.359832763671875 ], [ -93.1842605, 44.9270653, 280.0484619140625 ], [ -93.184831, 44.9270673, 278.385498046875 ], [ -93.18715, 44.9270756, 270.086456298828125 ], [ -93.187248, 44.92707, 269.828582763671875 ], [ -93.1873795, 44.9270698, 269.613311767578125 ], [ -93.1875091, 44.9270697, 269.276397705078125 ], [ -93.1899273, 44.9270652, 264.239227294921875 ], [ -93.1923811, 44.9270493, 261.21282958984375 ], [ -93.1925171, 44.9270482, 261.13018798828125 ], [ -93.1926039, 44.927048, 261.06121826171875 ], [ -93.19359, 44.927045, 260.1724853515625 ], [ -93.1941422, 44.9270434, 259.121551513671875 ], [ -93.1942587, 44.9270431, 258.7586669921875 ], [ -93.194962, 44.927041, 255.965682983398438 ], [ -93.1951314, 44.9270405, 255.256088256835938 ], [ -93.1958598, 44.9270385, 252.371917724609375 ], [ -93.1961085, 44.927044, 251.909881591796875 ], [ -93.196306, 44.9270117, 251.41961669921875 ], [ -93.196640800000011, 44.9270096, 250.95977783203125 ], [ -93.19679570000001, 44.9270086, 250.847671508789062 ], [ -93.196809300000012, 44.9269402, 250.80450439453125 ], [ -93.19693, 44.9269406, 250.8040771484375 ] ] } },
{ "type": "Feature", "id": 4, "properties": { "time": 4132.1925504391002, "elev": 47.033035278320312 }, "geometry": { "type": "LineString", "coordinates": [ [ -93.1404719, 44.9270039, 244.711471557617188 ], [ -93.1404736, 44.9269198, 244.461105346679688 ], [ -93.141565300000011, 44.9269251, 245.05059814453125 ], [ -93.143283700000012, 44.9269334, 250.002578735351562 ], [ -93.1435311, 44.9269736, 250.944137573242188 ], [ -93.143775, 44.9269735, 251.701217651367188 ], [ -93.1439136, 44.9269757, 252.486495971679688 ], [ -93.144192100000012, 44.9269795, 253.891815185546875 ], [ -93.1452335, 44.9269792, 258.177001953125 ], [ -93.1453881, 44.9269801, 259.14801025390625 ], [ -93.1455332, 44.9269808, 259.546722412109375 ], [ -93.1454922, 44.9270306, 259.546722412109375 ], [ -93.1464672, 44.9270331, 263.2796630859375 ], [ -93.1464705, 44.9273666, 266.1339111328125 ], [ -93.1466014, 44.9273974, 266.279052734375 ], [ -93.1467583, 44.9273975, 266.32177734375 ], [ -93.14941970000001, 44.9273988, 275.45782470703125 ], [ -93.1494157, 44.9278495, 275.506317138671875 ], [ -93.150046, 44.9278516, 276.728546142578125 ], [ -93.1502758, 44.9278523, 277.085235595703125 ], [ -93.150300800000011, 44.9278524, 277.19903564453125 ], [ -93.150906400000011, 44.927858, 278.826904296875 ], [ -93.151719, 44.927857, 281.434783935546875 ], [ -93.1542673, 44.927865, 284.399932861328125 ], [ -93.156854, 44.9278832, 285.631134033203125 ], [ -93.1574745, 44.9278891, 285.165802001953125 ], [ -93.157485, 44.9283371, 284.66510009765625 ], [ -93.157489, 44.9287847, 284.659271240234375 ], [ -93.159371, 44.928804, 283.905242919921875 ], [ -93.1619271, 44.928805, 285.70233154296875 ], [ -93.162577500000012, 44.9288055, 287.640472412109375 ], [ -93.162579400000013, 44.9306124, 288.0032958984375 ], [ -93.163199600000013, 44.9306148, 287.7781982421875 ], [ -93.1638552, 44.9306173, 287.33807373046875 ], [ -93.1644859, 44.9306198, 286.934906005859375 ], [ -93.1650833, 44.9306221, 286.729888916015625 ], [ -93.1657241, 44.9306247, 286.59747314453125 ], [ -93.165724700000013, 44.9288146, 286.326507568359375 ], [ -93.1663361, 44.9288173, 286.103973388671875 ], [ -93.16704390000001, 44.9288173, 285.998046875 ], [ -93.1678329, 44.9288159, 285.703338623046875 ], [ -93.1689843, 44.9288179, 285.22430419921875 ], [ -93.169587400000012, 44.9288157, 285.166046142578125 ], [ -93.1701708, 44.9288138, 284.877838134765625 ], [ -93.170903200000012, 44.9288184, 284.455535888671875 ], [ -93.1721141, 44.928826, 283.964874267578125 ], [ -93.1721141, 44.9283762, 284.08233642578125 ], [ -93.174671, 44.9283808, 283.223541259765625 ], [ -93.1747785, 44.9283812, 283.29461669921875 ], [ -93.1763198, 44.9283877, 283.497528076171875 ], [ -93.1763279, 44.9288466, 283.536590576171875 ], [ -93.177216, 44.928849, 284.168426513671875 ], [ -93.177216800000011, 44.9279447, 284.8284912109375 ], [ -93.1772172, 44.9275017, 284.09442138671875 ], [ -93.179752, 44.9275067, 283.685302734375 ], [ -93.1822875, 44.9275173, 283.697998046875 ], [ -93.18242020000001, 44.9275179, 283.72784423828125 ], [ -93.1848326, 44.9275291, 279.964447021484375 ], [ -93.1873699, 44.9275347, 270.019866943359375 ], [ -93.187377, 44.927176, 269.631103515625 ], [ -93.187499100000011, 44.9271761, 269.4281005859375 ], [ -93.1875091, 44.9270697, 269.276397705078125 ], [ -93.1899273, 44.9270652, 264.239227294921875 ], [ -93.1923811, 44.9270493, 261.21282958984375 ], [ -93.1925171, 44.9270482, 261.13018798828125 ], [ -93.1926039, 44.927048, 261.06121826171875 ], [ -93.19359, 44.927045, 260.1724853515625 ], [ -93.1941422, 44.9270434, 259.121551513671875 ], [ -93.1942587, 44.9270431, 258.7586669921875 ], [ -93.194962, 44.927041, 255.965682983398438 ], [ -93.1951314, 44.9270405, 255.256088256835938 ], [ -93.1958598, 44.9270385, 252.371917724609375 ], [ -93.1961085, 44.927044, 251.909881591796875 ], [ -93.196306, 44.9270117, 251.41961669921875 ], [ -93.196640800000011, 44.9270096, 250.95977783203125 ], [ -93.19679570000001, 44.9270086, 250.847671508789062 ], [ -93.196809300000012, 44.9269402, 250.80450439453125 ], [ -93.19693, 44.9269406, 250.8040771484375 ] ] } },
{ "type": "Feature", "id": 5, "properties": { "time": 4351.8814255641055, "elev": 47.012466430664062 }, "geometry": { "type": "LineString", "coordinates": [ [ -93.1404719, 44.9270039, 244.711471557617188 ], [ -93.1404736, 44.9269198, 244.461105346679688 ], [ -93.141565300000011, 44.9269251, 245.05059814453125 ], [ -93.143283700000012, 44.9269334, 250.002578735351562 ], [ -93.1435311, 44.9269736, 250.944137573242188 ], [ -93.143775, 44.9269735, 251.701217651367188 ], [ -93.1439136, 44.9269757, 252.486495971679688 ], [ -93.144192100000012, 44.9269795, 253.891815185546875 ], [ -93.1452335, 44.9269792, 258.177001953125 ], [ -93.1453881, 44.9269801, 259.14801025390625 ], [ -93.1455332, 44.9269808, 259.546722412109375 ], [ -93.1454922, 44.9270306, 259.546722412109375 ], [ -93.1464672, 44.9270331, 263.2796630859375 ], [ -93.1464705, 44.9273666, 266.1339111328125 ], [ -93.1466014, 44.9273974, 266.279052734375 ], [ -93.1467583, 44.9273975, 266.32177734375 ], [ -93.14941970000001, 44.9273988, 275.45782470703125 ], [ -93.1494157, 44.9278495, 275.506317138671875 ], [ -93.150046, 44.9278516, 276.728546142578125 ], [ -93.1502758, 44.9278523, 277.085235595703125 ], [ -93.150300800000011, 44.9278524, 277.19903564453125 ], [ -93.150906400000011, 44.927858, 278.826904296875 ], [ -93.151719, 44.927857, 281.434783935546875 ], [ -93.1542673, 44.927865, 284.399932861328125 ], [ -93.156854, 44.9278832, 285.631134033203125 ], [ -93.1574745, 44.9278891, 285.165802001953125 ], [ -93.157485, 44.9283371, 284.66510009765625 ], [ -93.157489, 44.9287847, 284.659271240234375 ], [ -93.159371, 44.928804, 283.905242919921875 ], [ -93.1619271, 44.928805, 285.70233154296875 ], [ -93.162577500000012, 44.9288055, 287.640472412109375 ], [ -93.162579400000013, 44.9306124, 288.0032958984375 ], [ -93.163199600000013, 44.9306148, 287.7781982421875 ], [ -93.1638552, 44.9306173, 287.33807373046875 ], [ -93.1644859, 44.9306198, 286.934906005859375 ], [ -93.1650833, 44.9306221, 286.729888916015625 ], [ -93.1657241, 44.9306247, 286.59747314453125 ], [ -93.165724700000013, 44.9288146, 286.326507568359375 ], [ -93.1663361, 44.9288173, 286.103973388671875 ], [ -93.16704390000001, 44.9288173, 285.998046875 ], [ -93.1678329, 44.9288159, 285.703338623046875 ], [ -93.1689843, 44.9288179, 285.22430419921875 ], [ -93.169587400000012, 44.9288157, 285.166046142578125 ], [ -93.1701708, 44.9288138, 284.877838134765625 ], [ -93.170903200000012, 44.9288184, 284.455535888671875 ], [ -93.1721141, 44.928826, 283.964874267578125 ], [ -93.17467, 44.928842, 283.079498291015625 ], [ -93.17477860000001, 44.9288423, 283.038482666015625 ], [ -93.1763279, 44.9288466, 283.536590576171875 ], [ -93.177216, 44.928849, 284.168426513671875 ], [ -93.177215600000011, 44.9292944, 284.324188232421875 ], [ -93.1772152, 44.929744, 284.782867431640625 ], [ -93.1816922, 44.9297686, 283.48150634765625 ], [ -93.18229, 44.929767, 282.968719482421875 ], [ -93.184841, 44.929783, 279.105377197265625 ], [ -93.187376, 44.929794, 273.931610107421875 ], [ -93.1880211, 44.9297915, 271.761444091796875 ], [ -93.1899304, 44.9297906, 266.362701416015625 ], [ -93.1924982, 44.929779, 262.46710205078125 ], [ -93.1924951, 44.9302216, 262.2591552734375 ], [ -93.1924926, 44.9305935, 262.170257568359375 ], [ -93.1930114, 44.9305921, 262.060760498046875 ], [ -93.19360660000001, 44.9305921, 261.783843994140625 ], [ -93.1935905, 44.9271556, 260.373687744140625 ], [ -93.19359, 44.927045, 260.1724853515625 ], [ -93.1941422, 44.9270434, 259.121551513671875 ], [ -93.1942587, 44.9270431, 258.7586669921875 ], [ -93.194962, 44.927041, 255.965682983398438 ], [ -93.1951314, 44.9270405, 255.256088256835938 ], [ -93.1958598, 44.9270385, 252.371917724609375 ], [ -93.1961085, 44.927044, 251.909881591796875 ], [ -93.196306, 44.9270117, 251.41961669921875 ], [ -93.196640800000011, 44.9270096, 250.95977783203125 ], [ -93.19679570000001, 44.9270086, 250.847671508789062 ], [ -93.196809300000012, 44.9269402, 250.80450439453125 ], [ -93.19693, 44.9269406, 250.8040771484375 ] ] } },
{ "type": "Feature", "id": 6, "properties": { "time": 4429.0702342987061, "elev": 46.944869995117188 }, "geometry": { "type": "LineString", "coordinates": [ [ -93.1404719, 44.9270039, 244.711471557617188 ], [ -93.1404736, 44.9269198, 244.461105346679688 ], [ -93.141565300000011, 44.9269251, 245.05059814453125 ], [ -93.143283700000012, 44.9269334, 250.002578735351562 ], [ -93.1435311, 44.9269736, 250.944137573242188 ], [ -93.143775, 44.9269735, 251.701217651367188 ], [ -93.1439136, 44.9269757, 252.486495971679688 ], [ -93.144192100000012, 44.9269795, 253.891815185546875 ], [ -93.1452335, 44.9269792, 258.177001953125 ], [ -93.1453881, 44.9269801, 259.14801025390625 ], [ -93.1455332, 44.9269808, 259.546722412109375 ], [ -93.1454922, 44.9270306, 259.546722412109375 ], [ -93.1464672, 44.9270331, 263.2796630859375 ], [ -93.1464705, 44.9273666, 266.1339111328125 ], [ -93.1466014, 44.9273974, 266.279052734375 ], [ -93.1467583, 44.9273975, 266.32177734375 ], [ -93.14941970000001, 44.9273988, 275.45782470703125 ], [ -93.1494157, 44.9278495, 275.506317138671875 ], [ -93.150046, 44.9278516, 276.728546142578125 ], [ -93.1502758, 44.9278523, 277.085235595703125 ], [ -93.150300800000011, 44.9278524, 277.19903564453125 ], [ -93.150906400000011, 44.927858, 278.826904296875 ], [ -93.151719, 44.927857, 281.434783935546875 ], [ -93.1542673, 44.927865, 284.399932861328125 ], [ -93.156854, 44.9278832, 285.631134033203125 ], [ -93.1574745, 44.9278891, 285.165802001953125 ], [ -93.157485, 44.9283371, 284.66510009765625 ], [ -93.157489, 44.9287847, 284.659271240234375 ], [ -93.159371, 44.928804, 283.905242919921875 ], [ -93.1619271, 44.928805, 285.70233154296875 ], [ -93.162577500000012, 44.9288055, 287.640472412109375 ], [ -93.162579400000013, 44.9306124, 288.0032958984375 ], [ -93.163199600000013, 44.9306148, 287.7781982421875 ], [ -93.1638552, 44.9306173, 287.33807373046875 ], [ -93.1644859, 44.9306198, 286.934906005859375 ], [ -93.1650833, 44.9306221, 286.729888916015625 ], [ -93.1657241, 44.9306247, 286.59747314453125 ], [ -93.165724700000013, 44.9288146, 286.326507568359375 ], [ -93.1663361, 44.9288173, 286.103973388671875 ], [ -93.16704390000001, 44.9288173, 285.998046875 ], [ -93.1678329, 44.9288159, 285.703338623046875 ], [ -93.1689843, 44.9288179, 285.22430419921875 ], [ -93.169587400000012, 44.9288157, 285.166046142578125 ], [ -93.1701708, 44.9288138, 284.877838134765625 ], [ -93.170903200000012, 44.9288184, 284.455535888671875 ], [ -93.1721141, 44.928826, 283.964874267578125 ], [ -93.1721141, 44.9283762, 284.08233642578125 ], [ -93.174671, 44.9283808, 283.223541259765625 ], [ -93.1747785, 44.9283812, 283.29461669921875 ], [ -93.1763198, 44.9283877, 283.497528076171875 ], [ -93.1763279, 44.9288466, 283.536590576171875 ], [ -93.177216, 44.928849, 284.168426513671875 ], [ -93.177215600000011, 44.9292944, 284.324188232421875 ], [ -93.1772152, 44.929744, 284.782867431640625 ], [ -93.1816922, 44.9297686, 283.48150634765625 ], [ -93.18229, 44.929767, 282.968719482421875 ], [ -93.184841, 44.929783, 279.105377197265625 ], [ -93.187376, 44.929794, 273.931610107421875 ], [ -93.1880211, 44.9297915, 271.761444091796875 ], [ -93.1899304, 44.9297906, 266.362701416015625 ], [ -93.1924982, 44.929779, 262.46710205078125 ], [ -93.1924951, 44.9302216, 262.2591552734375 ], [ -93.1924926, 44.9305935, 262.170257568359375 ], [ -93.1930114, 44.9305921, 262.060760498046875 ], [ -93.19360660000001, 44.9305921, 261.783843994140625 ], [ -93.1935905, 44.9271556, 260.373687744140625 ], [ -93.19359, 44.927045, 260.1724853515625 ], [ -93.1941422, 44.9270434, 259.121551513671875 ], [ -93.1942587, 44.9270431, 258.7586669921875 ], [ -93.194962, 44.927041, 255.965682983398438 ], [ -93.1951314, 44.9270405, 255.256088256835938 ], [ -93.1958598, 44.9270385, 252.371917724609375 ], [ -93.1961085, 44.927044, 251.909881591796875 ], [ -93.196306, 44.9270117, 251.41961669921875 ], [ -93.196640800000011, 44.9270096, 250.95977783203125 ], [ -93.19679570000001, 44.9270086, 250.847671508789062 ], [ -93.196809300000012, 44.9269402, 250.80450439453125 ], [ -93.19693, 44.9269406, 250.8040771484375 ] ] } },
{ "type": "Feature", "id": 7, "properties": { "time": 6154.2153747265147, "elev": 41.727462768554688 }, "geometry": { "type": "LineString", "coordinates": [ [ -93.1404719, 44.9270039, 244.711471557617188 ], [ -93.1404736, 44.9269198, 244.461105346679688 ], [ -93.141565300000011, 44.9269251, 245.05059814453125 ], [ -93.1415643, 44.9268418, 244.808853149414062 ], [ -93.1415599, 44.9264752, 244.33831787109375 ], [ -93.141562, 44.9263981, 244.33831787109375 ], [ -93.141555, 44.9259566, 244.100830078125 ], [ -93.1415551, 44.9255154, 243.67755126953125 ], [ -93.1415449, 44.9250777, 243.438339233398438 ], [ -93.141542, 44.9246297, 243.186843872070312 ], [ -93.141556900000012, 44.924197, 243.403793334960938 ], [ -93.1415492, 44.9237639, 243.64947509765625 ], [ -93.141541600000011, 44.9233104, 243.504058837890625 ], [ -93.1415403, 44.9228496, 243.628997802734375 ], [ -93.1415456, 44.9223958, 243.673019409179688 ], [ -93.1415432, 44.9219461, 243.5589599609375 ], [ -93.1415426, 44.9214949, 243.395095825195312 ], [ -93.1415493, 44.9210428, 243.065017700195312 ], [ -93.141545, 44.9205839, 242.730911254882812 ], [ -93.1415518, 44.9201279, 242.358428955078125 ], [ -93.1415554, 44.9196798, 242.150299072265625 ], [ -93.1415558, 44.9192502, 241.536224365234375 ], [ -93.141561, 44.9183585, 241.11273193359375 ], [ -93.1415631, 44.9180111, 241.707992553710938 ], [ -93.1415616, 44.9179508, 241.902862548828125 ], [ -93.141627500000013, 44.9178509, 242.136627197265625 ], [ -93.14159690000001, 44.9178277, 242.136627197265625 ], [ -93.14158, 44.9178157, 242.136627197265625 ], [ -93.14208210000001, 44.9174764, 242.671920776367188 ], [ -93.143208800000011, 44.9167106, 243.149200439453125 ], [ -93.1431118, 44.9166379, 243.314910888671875 ], [ -93.1434806, 44.9163732, 243.576339721679688 ], [ -93.143569500000012, 44.9163108, 243.590560913085938 ], [ -93.1441205, 44.9159319, 243.931976318359375 ], [ -93.1444537, 44.9157131, 236.97509765625 ], [ -93.1447467, 44.9155206, 243.842987060546875 ], [ -93.1449359, 44.9153923, 243.670303344726562 ], [ -93.1451289, 44.9152615, 243.593887329101562 ], [ -93.1454059, 44.9150753, 243.418792724609375 ], [ -93.1456019, 44.9149411, 243.343994140625 ], [ -93.1458032, 44.9148033, 243.218017578125 ], [ -93.1458762, 44.9147533, 243.1893310546875 ], [ -93.1461591, 44.9145597, 243.036056518554688 ], [ -93.1462824, 44.9144753, 243.04571533203125 ], [ -93.146534800000012, 44.9143025, 242.906890869140625 ], [ -93.147301, 44.9137826, 242.5216064453125 ], [ -93.1474337, 44.9136926, 242.66705322265625 ], [ -93.1475565, 44.9136104, 242.713241577148438 ], [ -93.1479628, 44.9133381, 243.203567504882812 ], [ -93.1481707, 44.9131958, 243.730117797851562 ], [ -93.1483534, 44.9130708, 243.988998413085938 ], [ -93.1490438, 44.9126138, 245.217926025390625 ], [ -93.1493077, 44.912437, 245.785476684570312 ], [ -93.1495349, 44.9122773, 246.061325073242188 ], [ -93.15000830000001, 44.9119446, 246.474746704101562 ], [ -93.151089, 44.9112108, 248.013473510742188 ], [ -93.1512406, 44.911108, 248.364089965820312 ], [ -93.151538300000013, 44.910906, 248.735275268554688 ], [ -93.1517531, 44.9107603, 248.932540893554688 ], [ -93.1521987, 44.910458, 249.537139892578125 ], [ -93.152400300000011, 44.9103213, 249.774581909179688 ], [ -93.1526007, 44.9101854, 249.899337768554688 ], [ -93.1527164, 44.9101699, 250.006378173828125 ], [ -93.1528203, 44.9101093, 250.004791259765625 ], [ -93.15292, 44.9100511, 250.096389770507812 ], [ -93.152966, 44.9099709, 250.2415771484375 ], [ -93.155681300000012, 44.908692, 249.242599487304688 ], [ -93.1560594, 44.9085218, 249.040664672851562 ], [ -93.1567789, 44.9081793, 248.764892578125 ], [ -93.1586341, 44.9073029, 248.072174072265625 ], [ -93.1592552, 44.9070096, 247.844284057617188 ], [ -93.1597562, 44.9067729, 247.647171020507812 ], [ -93.1618667, 44.9057846, 246.926605224609375 ], [ -93.1620634, 44.9056911, 246.77386474609375 ], [ -93.1640083, 44.904787, 245.803359985351562 ], [ -93.1644388, 44.9045869, 245.63275146484375 ], [ -93.164771800000011, 44.9044314, 245.441970825195312 ], [ -93.16506720000001, 44.9042934, 245.33319091796875 ], [ -93.1652648, 44.9043137, 245.185546875 ], [ -93.165453500000012, 44.9043093, 245.285415649414062 ], [ -93.165888700000011, 44.9042993, 245.640701293945312 ], [ -93.1659378, 44.9042982, 245.717025756835938 ], [ -93.1664906, 44.9042823, 246.093063354492188 ], [ -93.1669095, 44.9042817, 246.019821166992188 ], [ -93.1676032, 44.9042925, 246.086517333984375 ], [ -93.1678315, 44.9042932, 246.124710083007812 ], [ -93.1721188, 44.9042741, 247.155487060546875 ], [ -93.1732633, 44.9042733, 245.099502563476562 ], [ -93.17477430000001, 44.9042723, 244.725830078125 ], [ -93.1758012, 44.9042716, 245.104095458984375 ], [ -93.1762706, 44.9042713, 245.034912109375 ], [ -93.1765661, 44.9042711, 244.920303344726562 ], [ -93.17709330000001, 44.9042707, 244.907608032226562 ], [ -93.1771619, 44.9042712, 244.964813232421875 ], [ -93.177327, 44.9042725, 244.956878662109375 ], [ -93.177433900000011, 44.904273, 244.87969970703125 ], [ -93.1776658, 44.9042741, 245.055313110351562 ], [ -93.17782840000001, 44.9042861, 245.247787475585938 ], [ -93.1779863, 44.9043239, 245.48486328125 ], [ -93.1780118, 44.9043351, 245.48486328125 ], [ -93.1780882, 44.9043686, 245.586822509765625 ], [ -93.1781854, 44.9044443, 245.811264038085938 ], [ -93.1789239, 44.9052876, 247.420822143554688 ], [ -93.1795454, 44.9059404, 248.832427978515625 ], [ -93.1812046, 44.9077831, 250.745223999023438 ], [ -93.1818274, 44.9084747, 251.308074951171875 ], [ -93.18220740000001, 44.9088967, 251.618209838867188 ], [ -93.1825095, 44.9092321, 251.853775024414062 ], [ -93.1830123, 44.9097942, 252.2125244140625 ], [ -93.184123, 44.9114633, 256.07281494140625 ], [ -93.1848126, 44.912499, 259.810150146484375 ], [ -93.1848509, 44.9125559, 259.85076904296875 ], [ -93.1856108, 44.913684, 260.824554443359375 ], [ -93.18637050000001, 44.914822, 261.701629638671875 ], [ -93.187047, 44.9158444, 261.97576904296875 ], [ -93.1871138, 44.9159454, 261.975860595703125 ], [ -93.1871978, 44.9160605, 261.9837646484375 ], [ -93.1872606, 44.9161669, 261.96209716796875 ], [ -93.1872878, 44.9162192, 261.885406494140625 ], [ -93.1873085, 44.9162859, 261.885406494140625 ], [ -93.1873164, 44.9163859, 262.0819091796875 ], [ -93.1873214, 44.9170868, 262.32958984375 ], [ -93.187328, 44.9177183, 262.357666015625 ], [ -93.1873304, 44.9178231, 262.3365478515625 ], [ -93.1873832, 44.9178906, 262.30059814453125 ], [ -93.1873817, 44.9179268, 262.30059814453125 ], [ -93.1873817, 44.9179767, 262.220184326171875 ], [ -93.1873773, 44.9180341, 262.220184326171875 ], [ -93.1873831, 44.9184387, 262.416778564453125 ], [ -93.1873857, 44.918746, 262.562225341796875 ], [ -93.1873863, 44.9188193, 262.621612548828125 ], [ -93.18738780000001, 44.9188934, 262.67889404296875 ], [ -93.1873893, 44.9189675, 262.67889404296875 ], [ -93.1873886, 44.9190206, 262.74420166015625 ], [ -93.1873879, 44.919066, 262.74420166015625 ], [ -93.187384900000012, 44.9192822, 263.065277099609375 ], [ -93.187384, 44.9193432, 263.065277099609375 ], [ -93.18738350000001, 44.9194394, 263.175506591796875 ], [ -93.1873826, 44.9196015, 263.411041259765625 ], [ -93.187382, 44.9197035, 263.484832763671875 ], [ -93.1873822, 44.9197569, 263.5518798828125 ], [ -93.187519200000011, 44.9197579, 263.467315673828125 ], [ -93.187677, 44.9197597, 263.3780517578125 ], [ -93.1876771, 44.9198415, 263.327301025390625 ], [ -93.187678600000012, 44.9199003, 263.327301025390625 ], [ -93.187677900000011, 44.9201365, 263.930572509765625 ], [ -93.1876759, 44.9201978, 264.03717041015625 ], [ -93.1877175, 44.9202342, 264.073455810546875 ], [ -93.187809300000012, 44.9203069, 264.2098388671875 ], [ -93.1878125, 44.9207086, 264.200927734375 ], [ -93.189927, 44.920704, 262.19842529296875 ], [ -93.192491, 44.920697, 260.14569091796875 ], [ -93.192492800000011, 44.9211395, 259.759033203125 ], [ -93.1924948, 44.921608, 259.3955078125 ], [ -93.192496600000013, 44.9220538, 259.208038330078125 ], [ -93.1924985, 44.922511, 259.137176513671875 ], [ -93.1925004, 44.922965, 259.348297119140625 ], [ -93.192502, 44.9233514, 259.386260986328125 ], [ -93.1925022, 44.923413, 259.386260986328125 ], [ -93.192590700000011, 44.923414, 259.386260986328125 ], [ -93.193598200000011, 44.9234253, 259.7257080078125 ], [ -93.1935901, 44.9269524, 259.95599365234375 ], [ -93.1941424, 44.9269514, 259.156005859375 ], [ -93.194878100000011, 44.92695, 256.4747314453125 ], [ -93.1949943, 44.9269478, 256.042694091796875 ], [ -93.1951051, 44.9269469, 255.325347900390625 ], [ -93.1958543, 44.9269407, 252.710861206054688 ], [ -93.1966399, 44.9269407, 251.039382934570312 ], [ -93.1967397, 44.9269404, 250.933578491210938 ], [ -93.196809300000012, 44.9269402, 250.80450439453125 ], [ -93.19693, 44.9269406, 250.8040771484375 ] ] } },
{ "type": "Feature", "id": 8, "properties": { "time": 6154.5335190112764, "elev": 35.398300170898438 }, "geometry": { "type": "LineString", "coordinates": [ [ -93.1404719, 44.9270039, 244.711471557617188 ], [ -93.1404736, 44.9269198, 244.461105346679688 ], [ -93.141565300000011, 44.9269251, 245.05059814453125 ], [ -93.1415643, 44.9268418, 244.808853149414062 ], [ -93.1415599, 44.9264752, 244.33831787109375 ], [ -93.141562, 44.9263981, 244.33831787109375 ], [ -93.141555, 44.9259566, 244.100830078125 ], [ -93.1415551, 44.9255154, 243.67755126953125 ], [ -93.1415449, 44.9250777, 243.438339233398438 ], [ -93.141542, 44.9246297, 243.186843872070312 ], [ -93.141556900000012, 44.924197, 243.403793334960938 ], [ -93.1415492, 44.9237639, 243.64947509765625 ], [ -93.141541600000011, 44.9233104, 243.504058837890625 ], [ -93.1415403, 44.9228496, 243.628997802734375 ], [ -93.1415456, 44.9223958, 243.673019409179688 ], [ -93.1415432, 44.9219461, 243.5589599609375 ], [ -93.1415426, 44.9214949, 243.395095825195312 ], [ -93.1415493, 44.9210428, 243.065017700195312 ], [ -93.141545, 44.9205839, 242.730911254882812 ], [ -93.1415518, 44.9201279, 242.358428955078125 ], [ -93.1415554, 44.9196798, 242.150299072265625 ], [ -93.1415558, 44.9192502, 241.536224365234375 ], [ -93.141561, 44.9183585, 241.11273193359375 ], [ -93.1415631, 44.9180111, 241.707992553710938 ], [ -93.1415616, 44.9179508, 241.902862548828125 ], [ -93.141627500000013, 44.9178509, 242.136627197265625 ], [ -93.14159690000001, 44.9178277, 242.136627197265625 ], [ -93.14158, 44.9178157, 242.136627197265625 ], [ -93.14208210000001, 44.9174764, 242.671920776367188 ], [ -93.143208800000011, 44.9167106, 243.149200439453125 ], [ -93.1438004, 44.9163057, 243.828994750976562 ], [ -93.1439146, 44.9162098, 243.827316284179688 ], [ -93.1439823, 44.9161529, 243.886260986328125 ], [ -93.1441363, 44.9160418, 243.918701171875 ], [ -93.1447586, 44.9156267, 243.431243896484375 ], [ -93.1449022, 44.9155417, 243.744964599609375 ], [ -93.145003800000012, 44.9154958, 243.546920776367188 ], [ -93.1450398, 44.9154712, 243.546920776367188 ], [ -93.1451526, 44.9153941, 243.483505249023438 ], [ -93.14527480000001, 44.9153079, 243.667922973632812 ], [ -93.1454953, 44.9151524, 243.279571533203125 ], [ -93.1459751, 44.9148247, 243.331756591796875 ], [ -93.1462568, 44.9146335, 243.12176513671875 ], [ -93.1461591, 44.9145597, 243.036056518554688 ], [ -93.1462824, 44.9144753, 243.04571533203125 ], [ -93.146534800000012, 44.9143025, 242.906890869140625 ], [ -93.147301, 44.9137826, 242.5216064453125 ], [ -93.1474337, 44.9136926, 242.66705322265625 ], [ -93.1475565, 44.9136104, 242.713241577148438 ], [ -93.1479628, 44.9133381, 243.203567504882812 ], [ -93.1481707, 44.9131958, 243.730117797851562 ], [ -93.1483534, 44.9130708, 243.988998413085938 ], [ -93.1490438, 44.9126138, 245.217926025390625 ], [ -93.1493077, 44.912437, 245.785476684570312 ], [ -93.1495349, 44.9122773, 246.061325073242188 ], [ -93.15000830000001, 44.9119446, 246.474746704101562 ], [ -93.151089, 44.9112108, 248.013473510742188 ], [ -93.1512406, 44.911108, 248.364089965820312 ], [ -93.151538300000013, 44.910906, 248.735275268554688 ], [ -93.1517531, 44.9107603, 248.932540893554688 ], [ -93.1521987, 44.910458, 249.537139892578125 ], [ -93.152400300000011, 44.9103213, 249.774581909179688 ], [ -93.1526007, 44.9101854, 249.899337768554688 ], [ -93.1527164, 44.9101699, 250.006378173828125 ], [ -93.1528203, 44.9101093, 250.004791259765625 ], [ -93.15292, 44.9100511, 250.096389770507812 ], [ -93.152966, 44.9099709, 250.2415771484375 ], [ -93.155681300000012, 44.908692, 249.242599487304688 ], [ -93.1560594, 44.9085218, 249.040664672851562 ], [ -93.1567789, 44.9081793, 248.764892578125 ], [ -93.1586341, 44.9073029, 248.072174072265625 ], [ -93.1592552, 44.9070096, 247.844284057617188 ], [ -93.1597562, 44.9067729, 247.647171020507812 ], [ -93.1618667, 44.9057846, 246.926605224609375 ], [ -93.1620634, 44.9056911, 246.77386474609375 ], [ -93.1640083, 44.904787, 245.803359985351562 ], [ -93.1644388, 44.9045869, 245.63275146484375 ], [ -93.164771800000011, 44.9044314, 245.441970825195312 ], [ -93.16506720000001, 44.9042934, 245.33319091796875 ], [ -93.1652648, 44.9043137, 245.185546875 ], [ -93.165453500000012, 44.9043093, 245.285415649414062 ], [ -93.165888700000011, 44.9042993, 245.640701293945312 ], [ -93.1659378, 44.9042982, 245.717025756835938 ], [ -93.1664906, 44.9042823, 246.093063354492188 ], [ -93.1669095, 44.9042817, 246.019821166992188 ], [ -93.1676032, 44.9042925, 246.086517333984375 ], [ -93.1678315, 44.9042932, 246.124710083007812 ], [ -93.1721188, 44.9042741, 247.155487060546875 ], [ -93.1732633, 44.9042733, 245.099502563476562 ], [ -93.17477430000001, 44.9042723, 244.725830078125 ], [ -93.1758012, 44.9042716, 245.104095458984375 ], [ -93.1762706, 44.9042713, 245.034912109375 ], [ -93.1765661, 44.9042711, 244.920303344726562 ], [ -93.17709330000001, 44.9042707, 244.907608032226562 ], [ -93.1771619, 44.9042712, 244.964813232421875 ], [ -93.177327, 44.9042725, 244.956878662109375 ], [ -93.177433900000011, 44.904273, 244.87969970703125 ], [ -93.1776658, 44.9042741, 245.055313110351562 ], [ -93.17782840000001, 44.9042861, 245.247787475585938 ], [ -93.1779863, 44.9043239, 245.48486328125 ], [ -93.1780118, 44.9043351, 245.48486328125 ], [ -93.1780882, 44.9043686, 245.586822509765625 ], [ -93.1781854, 44.9044443, 245.811264038085938 ], [ -93.1789239, 44.9052876, 247.420822143554688 ], [ -93.1795454, 44.9059404, 248.832427978515625 ], [ -93.1812046, 44.9077831, 250.745223999023438 ], [ -93.1818274, 44.9084747, 251.308074951171875 ], [ -93.18220740000001, 44.9088967, 251.618209838867188 ], [ -93.1825095, 44.9092321, 251.853775024414062 ], [ -93.1830123, 44.9097942, 252.2125244140625 ], [ -93.184123, 44.9114633, 256.07281494140625 ], [ -93.1848126, 44.912499, 259.810150146484375 ], [ -93.1848509, 44.9125559, 259.85076904296875 ], [ -93.1856108, 44.913684, 260.824554443359375 ], [ -93.18637050000001, 44.914822, 261.701629638671875 ], [ -93.187047, 44.9158444, 261.97576904296875 ], [ -93.1871138, 44.9159454, 261.975860595703125 ], [ -93.1871978, 44.9160605, 261.9837646484375 ], [ -93.1872606, 44.9161669, 261.96209716796875 ], [ -93.1872878, 44.9162192, 261.885406494140625 ], [ -93.1873085, 44.9162859, 261.885406494140625 ], [ -93.1873164, 44.9163859, 262.0819091796875 ], [ -93.1873214, 44.9170868, 262.32958984375 ], [ -93.187328, 44.9177183, 262.357666015625 ], [ -93.1873304, 44.9178231, 262.3365478515625 ], [ -93.1873832, 44.9178906, 262.30059814453125 ], [ -93.1873817, 44.9179268, 262.30059814453125 ], [ -93.1873817, 44.9179767, 262.220184326171875 ], [ -93.1873773, 44.9180341, 262.220184326171875 ], [ -93.1873831, 44.9184387, 262.416778564453125 ], [ -93.1873857, 44.918746, 262.562225341796875 ], [ -93.1873863, 44.9188193, 262.621612548828125 ], [ -93.18738780000001, 44.9188934, 262.67889404296875 ], [ -93.1873893, 44.9189675, 262.67889404296875 ], [ -93.1873886, 44.9190206, 262.74420166015625 ], [ -93.1873879, 44.919066, 262.74420166015625 ], [ -93.187384900000012, 44.9192822, 263.065277099609375 ], [ -93.187384, 44.9193432, 263.065277099609375 ], [ -93.18738350000001, 44.9194394, 263.175506591796875 ], [ -93.1873826, 44.9196015, 263.411041259765625 ], [ -93.187382, 44.9197035, 263.484832763671875 ], [ -93.1873822, 44.9197569, 263.5518798828125 ], [ -93.187519200000011, 44.9197579, 263.467315673828125 ], [ -93.187677, 44.9197597, 263.3780517578125 ], [ -93.1876771, 44.9198415, 263.327301025390625 ], [ -93.187678600000012, 44.9199003, 263.327301025390625 ], [ -93.187677900000011, 44.9201365, 263.930572509765625 ], [ -93.1876759, 44.9201978, 264.03717041015625 ], [ -93.1877175, 44.9202342, 264.073455810546875 ], [ -93.187809300000012, 44.9203069, 264.2098388671875 ], [ -93.1878125, 44.9207086, 264.200927734375 ], [ -93.189927, 44.920704, 262.19842529296875 ], [ -93.192491, 44.920697, 260.14569091796875 ], [ -93.192492800000011, 44.9211395, 259.759033203125 ], [ -93.1924948, 44.921608, 259.3955078125 ], [ -93.192496600000013, 44.9220538, 259.208038330078125 ], [ -93.1924985, 44.922511, 259.137176513671875 ], [ -93.1925004, 44.922965, 259.348297119140625 ], [ -93.192502, 44.9233514, 259.386260986328125 ], [ -93.1925022, 44.923413, 259.386260986328125 ], [ -93.192590700000011, 44.923414, 259.386260986328125 ], [ -93.193598200000011, 44.9234253, 259.7257080078125 ], [ -93.1935901, 44.9269524, 259.95599365234375 ], [ -93.1941424, 44.9269514, 259.156005859375 ], [ -93.194878100000011, 44.92695, 256.4747314453125 ], [ -93.1949943, 44.9269478, 256.042694091796875 ], [ -93.1951051, 44.9269469, 255.325347900390625 ], [ -93.1958543, 44.9269407, 252.710861206054688 ], [ -93.1966399, 44.9269407, 251.039382934570312 ], [ -93.1967397, 44.9269404, 250.933578491210938 ], [ -93.196809300000012, 44.9269402, 250.80450439453125 ], [ -93.19693, 44.9269406, 250.8040771484375 ] ] } },
{ "type": "Feature", "id": 9, "properties": { "time": 6332.8416626269991, "elev": 35.380264282226562 }, "geometry": { "type": "LineString", "coordinates": [ [ -93.1404719, 44.9270039, 244.711471557617188 ], [ -93.1404736, 44.9269198, 244.461105346679688 ], [ -93.14026530000001, 44.9269188, 244.394973754882812 ], [ -93.1389986, 44.9269127, 244.5985107421875 ], [ -93.1389965, 44.9268323, 244.655838012695312 ], [ -93.13899330000001, 44.9267122, 244.7828369140625 ], [ -93.138991600000011, 44.9265302, 244.79449462890625 ], [ -93.138991600000011, 44.9263832, 244.669586181640625 ], [ -93.1389958, 44.9259439, 244.57562255859375 ], [ -93.13899880000001, 44.9254988, 244.178726196289062 ], [ -93.139004, 44.925041, 244.419418334960938 ], [ -93.1390054, 44.9246239, 244.119873046875 ], [ -93.139007, 44.924162, 244.274703979492188 ], [ -93.1390099, 44.9237419, 244.513748168945312 ], [ -93.1415492, 44.9237639, 243.64947509765625 ], [ -93.141541600000011, 44.9233104, 243.504058837890625 ], [ -93.1415403, 44.9228496, 243.628997802734375 ], [ -93.1415456, 44.9223958, 243.673019409179688 ], [ -93.1415432, 44.9219461, 243.5589599609375 ], [ -93.1415426, 44.9214949, 243.395095825195312 ], [ -93.1415493, 44.9210428, 243.065017700195312 ], [ -93.141545, 44.9205839, 242.730911254882812 ], [ -93.1415518, 44.9201279, 242.358428955078125 ], [ -93.1415554, 44.9196798, 242.150299072265625 ], [ -93.1415558, 44.9192502, 241.536224365234375 ], [ -93.141561, 44.9183585, 241.11273193359375 ], [ -93.1415631, 44.9180111, 241.707992553710938 ], [ -93.1415616, 44.9179508, 241.902862548828125 ], [ -93.141627500000013, 44.9178509, 242.136627197265625 ], [ -93.14159690000001, 44.9178277, 242.136627197265625 ], [ -93.14158, 44.9178157, 242.136627197265625 ], [ -93.14208210000001, 44.9174764, 242.671920776367188 ], [ -93.143208800000011, 44.9167106, 243.149200439453125 ], [ -93.1438004, 44.9163057, 243.828994750976562 ], [ -93.1439146, 44.9162098, 243.827316284179688 ], [ -93.1439823, 44.9161529, 243.886260986328125 ], [ -93.1441363, 44.9160418, 243.918701171875 ], [ -93.1447586, 44.9156267, 243.431243896484375 ], [ -93.1449022, 44.9155417, 243.744964599609375 ], [ -93.145003800000012, 44.9154958, 243.546920776367188 ], [ -93.1450398, 44.9154712, 243.546920776367188 ], [ -93.1451526, 44.9153941, 243.483505249023438 ], [ -93.14527480000001, 44.9153079, 243.667922973632812 ], [ -93.1454953, 44.9151524, 243.279571533203125 ], [ -93.1459751, 44.9148247, 243.331756591796875 ], [ -93.1462568, 44.9146335, 243.12176513671875 ], [ -93.1461591, 44.9145597, 243.036056518554688 ], [ -93.1462824, 44.9144753, 243.04571533203125 ], [ -93.146534800000012, 44.9143025, 242.906890869140625 ], [ -93.147301, 44.9137826, 242.5216064453125 ], [ -93.1474337, 44.9136926, 242.66705322265625 ], [ -93.1475565, 44.9136104, 242.713241577148438 ], [ -93.1479628, 44.9133381, 243.203567504882812 ], [ -93.1481707, 44.9131958, 243.730117797851562 ], [ -93.1483534, 44.9130708, 243.988998413085938 ], [ -93.1490438, 44.9126138, 245.217926025390625 ], [ -93.1493077, 44.912437, 245.785476684570312 ], [ -93.1495349, 44.9122773, 246.061325073242188 ], [ -93.15000830000001, 44.9119446, 246.474746704101562 ], [ -93.151089, 44.9112108, 248.013473510742188 ], [ -93.1512406, 44.911108, 248.364089965820312 ], [ -93.151538300000013, 44.910906, 248.735275268554688 ], [ -93.1517531, 44.9107603, 248.932540893554688 ], [ -93.1521987, 44.910458, 249.537139892578125 ], [ -93.152400300000011, 44.9103213, 249.774581909179688 ], [ -93.1526007, 44.9101854, 249.899337768554688 ], [ -93.1527164, 44.9101699, 250.006378173828125 ], [ -93.1528203, 44.9101093, 250.004791259765625 ], [ -93.15292, 44.9100511, 250.096389770507812 ], [ -93.152966, 44.9099709, 250.2415771484375 ], [ -93.155681300000012, 44.908692, 249.242599487304688 ], [ -93.1560594, 44.9085218, 249.040664672851562 ], [ -93.1567789, 44.9081793, 248.764892578125 ], [ -93.1586341, 44.9073029, 248.072174072265625 ], [ -93.1592552, 44.9070096, 247.844284057617188 ], [ -93.1597562, 44.9067729, 247.647171020507812 ], [ -93.1618667, 44.9057846, 246.926605224609375 ], [ -93.1620634, 44.9056911, 246.77386474609375 ], [ -93.1640083, 44.904787, 245.803359985351562 ], [ -93.1644388, 44.9045869, 245.63275146484375 ], [ -93.164771800000011, 44.9044314, 245.441970825195312 ], [ -93.16506720000001, 44.9042934, 245.33319091796875 ], [ -93.1652648, 44.9043137, 245.185546875 ], [ -93.165453500000012, 44.9043093, 245.285415649414062 ], [ -93.165888700000011, 44.9042993, 245.640701293945312 ], [ -93.1659378, 44.9042982, 245.717025756835938 ], [ -93.1664906, 44.9042823, 246.093063354492188 ], [ -93.1669095, 44.9042817, 246.019821166992188 ], [ -93.1676032, 44.9042925, 246.086517333984375 ], [ -93.1678315, 44.9042932, 246.124710083007812 ], [ -93.1721188, 44.9042741, 247.155487060546875 ], [ -93.1732633, 44.9042733, 245.099502563476562 ], [ -93.17477430000001, 44.9042723, 244.725830078125 ], [ -93.1758012, 44.9042716, 245.104095458984375 ], [ -93.1762706, 44.9042713, 245.034912109375 ], [ -93.1765661, 44.9042711, 244.920303344726562 ], [ -93.17709330000001, 44.9042707, 244.907608032226562 ], [ -93.1771619, 44.9042712, 244.964813232421875 ], [ -93.177327, 44.9042725, 244.956878662109375 ], [ -93.177433900000011, 44.904273, 244.87969970703125 ], [ -93.1776658, 44.9042741, 245.055313110351562 ], [ -93.17782840000001, 44.9042861, 245.247787475585938 ], [ -93.1779863, 44.9043239, 245.48486328125 ], [ -93.1780118, 44.9043351, 245.48486328125 ], [ -93.1780882, 44.9043686, 245.586822509765625 ], [ -93.1781854, 44.9044443, 245.811264038085938 ], [ -93.1789239, 44.9052876, 247.420822143554688 ], [ -93.1795454, 44.9059404, 248.832427978515625 ], [ -93.1812046, 44.9077831, 250.745223999023438 ], [ -93.1818274, 44.9084747, 251.308074951171875 ], [ -93.18220740000001, 44.9088967, 251.618209838867188 ], [ -93.1825095, 44.9092321, 251.853775024414062 ], [ -93.1830123, 44.9097942, 252.2125244140625 ], [ -93.184123, 44.9114633, 256.07281494140625 ], [ -93.1848126, 44.912499, 259.810150146484375 ], [ -93.1848509, 44.9125559, 259.85076904296875 ], [ -93.1856108, 44.913684, 260.824554443359375 ], [ -93.18637050000001, 44.914822, 261.701629638671875 ], [ -93.187047, 44.9158444, 261.97576904296875 ], [ -93.1871138, 44.9159454, 261.975860595703125 ], [ -93.1871978, 44.9160605, 261.9837646484375 ], [ -93.1872606, 44.9161669, 261.96209716796875 ], [ -93.1872878, 44.9162192, 261.885406494140625 ], [ -93.1873085, 44.9162859, 261.885406494140625 ], [ -93.1873164, 44.9163859, 262.0819091796875 ], [ -93.1873214, 44.9170868, 262.32958984375 ], [ -93.187328, 44.9177183, 262.357666015625 ], [ -93.1873304, 44.9178231, 262.3365478515625 ], [ -93.1873832, 44.9178906, 262.30059814453125 ], [ -93.1873817, 44.9179268, 262.30059814453125 ], [ -93.1873817, 44.9179767, 262.220184326171875 ], [ -93.1873773, 44.9180341, 262.220184326171875 ], [ -93.1873831, 44.9184387, 262.416778564453125 ], [ -93.1873857, 44.918746, 262.562225341796875 ], [ -93.1873863, 44.9188193, 262.621612548828125 ], [ -93.18738780000001, 44.9188934, 262.67889404296875 ], [ -93.1873893, 44.9189675, 262.67889404296875 ], [ -93.1873886, 44.9190206, 262.74420166015625 ], [ -93.1873879, 44.919066, 262.74420166015625 ], [ -93.187384900000012, 44.9192822, 263.065277099609375 ], [ -93.187384, 44.9193432, 263.065277099609375 ], [ -93.18738350000001, 44.9194394, 263.175506591796875 ], [ -93.1873826, 44.9196015, 263.411041259765625 ], [ -93.187382, 44.9197035, 263.484832763671875 ], [ -93.1873822, 44.9197569, 263.5518798828125 ], [ -93.187519200000011, 44.9197579, 263.467315673828125 ], [ -93.187677, 44.9197597, 263.3780517578125 ], [ -93.1876771, 44.9198415, 263.327301025390625 ], [ -93.187678600000012, 44.9199003, 263.327301025390625 ], [ -93.187677900000011, 44.9201365, 263.930572509765625 ], [ -93.1876759, 44.9201978, 264.03717041015625 ], [ -93.1877175, 44.9202342, 264.073455810546875 ], [ -93.187809300000012, 44.9203069, 264.2098388671875 ], [ -93.1878125, 44.9207086, 264.200927734375 ], [ -93.189927, 44.920704, 262.19842529296875 ], [ -93.192491, 44.920697, 260.14569091796875 ], [ -93.192492800000011, 44.9211395, 259.759033203125 ], [ -93.1924948, 44.921608, 259.3955078125 ], [ -93.192496600000013, 44.9220538, 259.208038330078125 ], [ -93.1924985, 44.922511, 259.137176513671875 ], [ -93.1925004, 44.922965, 259.348297119140625 ], [ -93.192502, 44.9233514, 259.386260986328125 ], [ -93.1925022, 44.923413, 259.386260986328125 ], [ -93.192590700000011, 44.923414, 259.386260986328125 ], [ -93.193598200000011, 44.9234253, 259.7257080078125 ], [ -93.1935901, 44.9269524, 259.95599365234375 ], [ -93.1941424, 44.9269514, 259.156005859375 ], [ -93.194878100000011, 44.92695, 256.4747314453125 ], [ -93.1949943, 44.9269478, 256.042694091796875 ], [ -93.1951051, 44.9269469, 255.325347900390625 ], [ -93.1958543, 44.9269407, 252.710861206054688 ], [ -93.1966399, 44.9269407, 251.039382934570312 ], [ -93.1967397, 44.9269404, 250.933578491210938 ], [ -93.196809300000012, 44.9269402, 250.80450439453125 ], [ -93.19693, 44.9269406, 250.8040771484375 ] ] } }
]
}
